{"fetched_at":"2026-07-15T17:46:59.734Z","source":"https://celestrak.org/NORAD/elements/gp.php?NAME=ASTROCAST&FORMAT=JSON","constellation":"astrocast","records":[{"OBJECT_NAME":"ASTROCAST 0.1","OBJECT_ID":"2018-099AS","EPOCH":"2026-07-15T03:23:32.317728","CLASSIFICATION_TYPE":"U","MEAN_MOTION":15.51450532,"ECCENTRICITY":0.000558,"INCLINATION":97.4371,"RA_OF_ASC_NODE":275.5483,"ARG_OF_PERICENTER":129.5554,"MEAN_ANOMALY":230.6191,"EPHEMERIS_TYPE":0,"NORAD_CAT_ID":43798,"ELEMENT_SET_NO":999,"REV_AT_EPOCH":41876,"BSTAR":0.00040186,"MEAN_MOTION_DOT":0.00023658,"MEAN_MOTION_DDOT":0},{"OBJECT_NAME":"ASTROCAST-0402","OBJECT_ID":"2023-001DE","EPOCH":"2026-07-15T04:30:32.493312","CLASSIFICATION_TYPE":"U","MEAN_MOTION":15.29007956,"ECCENTRICITY":0.0006447,"INCLINATION":97.5588,"RA_OF_ASC_NODE":289.8136,"ARG_OF_PERICENTER":134.5247,"MEAN_ANOMALY":225.6521,"EPHEMERIS_TYPE":0,"NORAD_CAT_ID":55109,"ELEMENT_SET_NO":999,"REV_AT_EPOCH":14881,"BSTAR":0.00021909,"MEAN_MOTION_DOT":0.00006096,"MEAN_MOTION_DDOT":0},{"OBJECT_NAME":"ASTROCAST-0401","OBJECT_ID":"2023-001DF","EPOCH":"2026-07-15T01:44:21.763104","CLASSIFICATION_TYPE":"U","MEAN_MOTION":15.28545722,"ECCENTRICITY":0.0009523,"INCLINATION":97.5574,"RA_OF_ASC_NODE":289.5019,"ARG_OF_PERICENTER":108.6507,"MEAN_ANOMALY":251.5767,"EPHEMERIS_TYPE":0,"NORAD_CAT_ID":55110,"ELEMENT_SET_NO":999,"REV_AT_EPOCH":19546,"BSTAR":0.00035871,"MEAN_MOTION_DOT":0.00009901,"MEAN_MOTION_DDOT":0},{"OBJECT_NAME":"ASTROCAST-0403","OBJECT_ID":"2023-001DG","EPOCH":"2026-07-14T05:46:20.646336","CLASSIFICATION_TYPE":"U","MEAN_MOTION":15.32330793,"ECCENTRICITY":0.00046251,"INCLINATION":97.5629,"RA_OF_ASC_NODE":289.9716,"ARG_OF_PERICENTER":215.2571,"MEAN_ANOMALY":144.8365,"EPHEMERIS_TYPE":0,"NORAD_CAT_ID":55111,"ELEMENT_SET_NO":999,"REV_AT_EPOCH":14870,"BSTAR":0.00043315062,"MEAN_MOTION_DOT":0.00013454,"MEAN_MOTION_DDOT":0},{"OBJECT_NAME":"ASTROCAST-0404","OBJECT_ID":"2023-001DH","EPOCH":"2026-07-14T19:53:28.438368","CLASSIFICATION_TYPE":"U","MEAN_MOTION":15.28820279,"ECCENTRICITY":0.00050823,"INCLINATION":97.5675,"RA_OF_ASC_NODE":290.3817,"ARG_OF_PERICENTER":244.7189,"MEAN_ANOMALY":115.3524,"EPHEMERIS_TYPE":0,"NORAD_CAT_ID":55112,"ELEMENT_SET_NO":999,"REV_AT_EPOCH":14875,"BSTAR":0.00016218103,"MEAN_MOTION_DOT":0.00004465,"MEAN_MOTION_DDOT":0}]}
